ONEWEB-0721             
1 56725U 23068R   25348.15222464  .00000106  00000+0  21863-3 0  9991
2 56725  86.6797 144.5442 0001415  96.9218 263.2077 13.22454632133488
ONEWEB-0015             
1 61594U 24188A   25348.21348579 -.00000401  00000+0 -11661-2 0  9992
2 61594  87.8852  57.9342 0002021 120.0098 240.1231 13.11415998 60214
ONEWEB-0687             
1 61595U 24188B   25348.17432250  .00000029  00000+0  40377-4 0  9990
2 61595  87.9101  42.6858 0001524 119.2779 240.8505 13.17647719 61530
ONEWEB-0688             
1 61596U 24188C   25348.12708105 -.00000097  00000+0 -28189-3 0  9994
2 61596  87.9097  42.6954 0002523 129.9009 230.2345 13.17647569 61523
ONEWEB-0689             
1 61597U 24188D   25348.24739305 -.00000039  00000+0 -14578-3 0  9997
2 61597  87.8847  57.8623 0001390 107.9726 252.1553 13.11419902 60211
ONEWEB-0690             
1 61598U 24188E   25348.18127200  .00000487  00000+0  13367-2 0  9995
2 61598  87.8871  57.8890 0002353  91.7141 268.4256 13.11420540 60384
ONEWEB-0691             
1 61599U 24188F   25348.25247356 -.00000288  00000+0 -84890-3 0  9990
2 61599  87.8844  57.7755 0001888 116.1630 243.9693 13.11419552 60240
ONEWEB-0692             
1 61600U 24188G   25348.19654111  .00000523  00000+0  14410-2 0  9997
2 61600  87.8852  57.9312 0001182  72.2201 287.9056 13.11415421 60226
ONEWEB-0693             
1 61601U 24188H   25348.21484358  .00000042  00000+0  74125-4 0  9992
2 61601  87.9102  42.6975 0002601  96.1726 263.9702 13.17649309 61522
ONEWEB-0695             
1 61602U 24188J   25348.24909034  .00000052  00000+0  11028-3 0  9992
2 61602  87.8857  57.9097 0001108 100.1217 260.0036 13.11420981 60226
ONEWEB-0697             
1 61603U 24188K   25348.20501418  .00000195  00000+0  51443-3 0  9996
2 61603  87.8854  57.9087 0001276  76.7707 283.3563 13.11414574 60203
ONEWEB-0698             
1 61604U 24188L   25348.18298883  .00000415  00000+0  11347-2 0  9996
2 61604  87.8856  57.9281 0002060  69.8907 290.2442 13.11417657 60229
ONEWEB-0699             
1 61605U 24188M   25348.27763924 -.00000422  00000+0 -12460-2 0  9997
2 61605  87.8819  73.1231 0001387  80.6213 279.5071 13.10375070 59098
ONEWEB-0700             
1 61606U 24188N   25348.27929931 -.00000445  00000+0 -13122-2 0  9991
2 61606  87.8828  73.0083 0000934 102.4697 257.6534 13.10374137 59082
ONEWEB-0701             
1 61607U 24188P   25348.29591620  .00000337  00000+0  92781-3 0  9991
2 61607  87.8818  73.1203 0001288  73.7325 286.3944 13.10374931 59095
ONEWEB-0702             
1 61608U 24188Q   25348.22873829 -.00000936  00000+0 -26779-2 0  9999
2 61608  87.8832  57.8057 0000984  71.2522 288.8713 13.11418332 60247
ONEWEB-0704             
1 61609U 24188R   25348.28428318 -.00000273  00000+0 -81918-3 0  9996
2 61609  87.8833  73.0877 0000824  79.4187 280.7034 13.10375652 59071
