[{"OBJECT_NAME":"ONEWEB-0721","OBJECT_ID":"2023-068R","EPOCH":"2025-12-14T03:39:12.208896","MEAN_MOTION":13.22454632,"ECCENTRICITY":0.00014156,"INCLINATION":86.6797,"RA_OF_ASC_NODE":144.5442,"ARG_OF_PERICENTER":96.9218,"MEAN_ANOMALY":263.2077,"EPHEMERIS_TYPE":0,"CLASSIFICATION_TYPE":"U","NORAD_CAT_ID":56725,"ELEMENT_SET_NO":999,"REV_AT_EPOCH":13348,"BSTAR":0.00021862628,"MEAN_MOTION_DOT":1.06e-6,"MEAN_MOTION_DDOT":0},{"OBJECT_NAME":"ONEWEB-0015","OBJECT_ID":"2024-188A","EPOCH":"2025-12-14T05:07:25.172256","MEAN_MOTION":13.11415998,"ECCENTRICITY":0.00020212,"INCLINATION":87.8852,"RA_OF_ASC_NODE":57.9342,"ARG_OF_PERICENTER":120.0098,"MEAN_ANOMALY":240.1231,"EPHEMERIS_TYPE":0,"CLASSIFICATION_TYPE":"U","NORAD_CAT_ID":61594,"ELEMENT_SET_NO":999,"REV_AT_EPOCH":6021,"BSTAR":-0.0011661349,"MEAN_MOTION_DOT":-4.01e-6,"MEAN_MOTION_DDOT":0},{"OBJECT_NAME":"ONEWEB-0687","OBJECT_ID":"2024-188B","EPOCH":"2025-12-14T04:11:01.464000","MEAN_MOTION":13.17647719,"ECCENTRICITY":0.00015245,"INCLINATION":87.9101,"RA_OF_ASC_NODE":42.6858,"ARG_OF_PERICENTER":119.2779,"MEAN_ANOMALY":240.8505,"EPHEMERIS_TYPE":0,"CLASSIFICATION_TYPE":"U","NORAD_CAT_ID":61595,"ELEMENT_SET_NO":999,"REV_AT_EPOCH":6153,"BSTAR":4.0377037e-5,"MEAN_MOTION_DOT":2.9e-7,"MEAN_MOTION_DDOT":0},{"OBJECT_NAME":"ONEWEB-0688","OBJECT_ID":"2024-188C","EPOCH":"2025-12-14T03:02:59.802720","MEAN_MOTION":13.17647569,"ECCENTRICITY":0.00025232,"INCLINATION":87.9097,"RA_OF_ASC_NODE":42.6954,"ARG_OF_PERICENTER":129.9009,"MEAN_ANOMALY":230.2345,"EPHEMERIS_TYPE":0,"CLASSIFICATION_TYPE":"U","NORAD_CAT_ID":61596,"ELEMENT_SET_NO":999,"REV_AT_EPOCH":6152,"BSTAR":-0.00028188885,"MEAN_MOTION_DOT":-9.7e-7,"MEAN_MOTION_DDOT":0},{"OBJECT_NAME":"ONEWEB-0689","OBJECT_ID":"2024-188D","EPOCH":"2025-12-14T05:56:14.759520","MEAN_MOTION":13.11419902,"ECCENTRICITY":0.00013903,"INCLINATION":87.8847,"RA_OF_ASC_NODE":57.8623,"ARG_OF_PERICENTER":107.9726,"MEAN_ANOMALY":252.1553,"EPHEMERIS_TYPE":0,"CLASSIFICATION_TYPE":"U","NORAD_CAT_ID":61597,"ELEMENT_SET_NO":999,"REV_AT_EPOCH":6021,"BSTAR":-0.00014578286,"MEAN_MOTION_DOT":-3.9e-7,"MEAN_MOTION_DDOT":0},{"OBJECT_NAME":"ONEWEB-0690","OBJECT_ID":"2024-188E","EPOCH":"2025-12-14T04:21:01.900800","MEAN_MOTION":13.1142054,"ECCENTRICITY":0.00023531,"INCLINATION":87.8871,"RA_OF_ASC_NODE":57.889,"ARG_OF_PERICENTER":91.7141,"MEAN_ANOMALY":268.4256,"EPHEMERIS_TYPE":0,"CLASSIFICATION_TYPE":"U","NORAD_CAT_ID":61598,"ELEMENT_SET_NO":999,"REV_AT_EPOCH":6038,"BSTAR":0.0013367413,"MEAN_MOTION_DOT":4.87e-6,"MEAN_MOTION_DDOT":0},{"OBJECT_NAME":"ONEWEB-0691","OBJECT_ID":"2024-188F","EPOCH":"2025-12-14T06:03:33.715584","MEAN_MOTION":13.11419552,"ECCENTRICITY":0.00018881,"INCLINATION":87.8844,"RA_OF_ASC_NODE":57.7755,"ARG_OF_PERICENTER":116.163,"MEAN_ANOMALY":243.9693,"EPHEMERIS_TYPE":0,"CLASSIFICATION_TYPE":"U","NORAD_CAT_ID":61599,"ELEMENT_SET_NO":999,"REV_AT_EPOCH":6024,"BSTAR":-0.00084889725,"MEAN_MOTION_DOT":-2.88e-6,"MEAN_MOTION_DDOT":0},{"OBJECT_NAME":"ONEWEB-0692","OBJECT_ID":"2024-188G","EPOCH":"2025-12-14T04:43:01.151904","MEAN_MOTION":13.11415421,"ECCENTRICITY":0.00011822,"INCLINATION":87.8852,"RA_OF_ASC_NODE":57.9312,"ARG_OF_PERICENTER":72.2201,"MEAN_ANOMALY":287.9056,"EPHEMERIS_TYPE":0,"CLASSIFICATION_TYPE":"U","NORAD_CAT_ID":61600,"ELEMENT_SET_NO":999,"REV_AT_EPOCH":6022,"BSTAR":0.0014409827,"MEAN_MOTION_DOT":5.23e-6,"MEAN_MOTION_DDOT":0},{"OBJECT_NAME":"ONEWEB-0693","OBJECT_ID":"2024-188H","EPOCH":"2025-12-14T05:09:22.485312","MEAN_MOTION":13.17649309,"ECCENTRICITY":0.0002601,"INCLINATION":87.9102,"RA_OF_ASC_NODE":42.6975,"ARG_OF_PERICENTER":96.1726,"MEAN_ANOMALY":263.9702,"EPHEMERIS_TYPE":0,"CLASSIFICATION_TYPE":"U","NORAD_CAT_ID":61601,"ELEMENT_SET_NO":999,"REV_AT_EPOCH":6152,"BSTAR":7.4124916e-5,"MEAN_MOTION_DOT":4.2e-7,"MEAN_MOTION_DDOT":0},{"OBJECT_NAME":"ONEWEB-0695","OBJECT_ID":"2024-188J","EPOCH":"2025-12-14T05:58:41.405376","MEAN_MOTION":13.11420981,"ECCENTRICITY":0.00011083,"INCLINATION":87.8857,"RA_OF_ASC_NODE":57.9097,"ARG_OF_PERICENTER":100.1217,"MEAN_ANOMALY":260.0036,"EPHEMERIS_TYPE":0,"CLASSIFICATION_TYPE":"U","NORAD_CAT_ID":61602,"ELEMENT_SET_NO":999,"REV_AT_EPOCH":6022,"BSTAR":0.00011028207,"MEAN_MOTION_DOT":5.2e-7,"MEAN_MOTION_DDOT":0},{"OBJECT_NAME":"ONEWEB-0697","OBJECT_ID":"2024-188K","EPOCH":"2025-12-14T04:55:13.225152","MEAN_MOTION":13.11414574,"ECCENTRICITY":0.00012764,"INCLINATION":87.8854,"RA_OF_ASC_NODE":57.9087,"ARG_OF_PERICENTER":76.7707,"MEAN_ANOMALY":283.3563,"EPHEMERIS_TYPE":0,"CLASSIFICATION_TYPE":"U","NORAD_CAT_ID":61603,"ELEMENT_SET_NO":999,"REV_AT_EPOCH":6020,"BSTAR":0.00051442988,"MEAN_MOTION_DOT":1.95e-6,"MEAN_MOTION_DDOT":0},{"OBJECT_NAME":"ONEWEB-0698","OBJECT_ID":"2024-188L","EPOCH":"2025-12-14T04:23:30.234912","MEAN_MOTION":13.11417657,"ECCENTRICITY":0.00020605,"INCLINATION":87.8856,"RA_OF_ASC_NODE":57.9281,"ARG_OF_PERICENTER":69.8907,"MEAN_ANOMALY":290.2442,"EPHEMERIS_TYPE":0,"CLASSIFICATION_TYPE":"U","NORAD_CAT_ID":61604,"ELEMENT_SET_NO":999,"REV_AT_EPOCH":6022,"BSTAR":0.0011346536,"MEAN_MOTION_DOT":4.15e-6,"MEAN_MOTION_DDOT":0},{"OBJECT_NAME":"ONEWEB-0699","OBJECT_ID":"2024-188M","EPOCH":"2025-12-14T06:39:48.030336","MEAN_MOTION":13.1037507,"ECCENTRICITY":0.00013873,"INCLINATION":87.8819,"RA_OF_ASC_NODE":73.1231,"ARG_OF_PERICENTER":80.6213,"MEAN_ANOMALY":279.5071,"EPHEMERIS_TYPE":0,"CLASSIFICATION_TYPE":"U","NORAD_CAT_ID":61605,"ELEMENT_SET_NO":999,"REV_AT_EPOCH":5909,"BSTAR":-0.0012460333,"MEAN_MOTION_DOT":-4.22e-6,"MEAN_MOTION_DDOT":0},{"OBJECT_NAME":"ONEWEB-0700","OBJECT_ID":"2024-188N","EPOCH":"2025-12-14T06:42:11.460384","MEAN_MOTION":13.10374137,"ECCENTRICITY":9.342e-5,"INCLINATION":87.8828,"RA_OF_ASC_NODE":73.0083,"ARG_OF_PERICENTER":102.4697,"MEAN_ANOMALY":257.6534,"EPHEMERIS_TYPE":0,"CLASSIFICATION_TYPE":"U","NORAD_CAT_ID":61606,"ELEMENT_SET_NO":999,"REV_AT_EPOCH":5908,"BSTAR":-0.0013122315,"MEAN_MOTION_DOT":-4.45e-6,"MEAN_MOTION_DDOT":0},{"OBJECT_NAME":"ONEWEB-0701","OBJECT_ID":"2024-188P","EPOCH":"2025-12-14T07:06:07.159680","MEAN_MOTION":13.10374931,"ECCENTRICITY":0.00012884,"INCLINATION":87.8818,"RA_OF_ASC_NODE":73.1203,"ARG_OF_PERICENTER":73.7325,"MEAN_ANOMALY":286.3944,"EPHEMERIS_TYPE":0,"CLASSIFICATION_TYPE":"U","NORAD_CAT_ID":61607,"ELEMENT_SET_NO":999,"REV_AT_EPOCH":5909,"BSTAR":0.00092780668,"MEAN_MOTION_DOT":3.37e-6,"MEAN_MOTION_DDOT":0},{"OBJECT_NAME":"ONEWEB-0702","OBJECT_ID":"2024-188Q","EPOCH":"2025-12-14T05:29:22.988256","MEAN_MOTION":13.11418332,"ECCENTRICITY":9.845e-5,"INCLINATION":87.8832,"RA_OF_ASC_NODE":57.8057,"ARG_OF_PERICENTER":71.2522,"MEAN_ANOMALY":288.8713,"EPHEMERIS_TYPE":0,"CLASSIFICATION_TYPE":"U","NORAD_CAT_ID":61608,"ELEMENT_SET_NO":999,"REV_AT_EPOCH":6024,"BSTAR":-0.0026778646,"MEAN_MOTION_DOT":-9.36e-6,"MEAN_MOTION_DDOT":0},{"OBJECT_NAME":"ONEWEB-0704","OBJECT_ID":"2024-188R","EPOCH":"2025-12-14T06:49:22.066752","MEAN_MOTION":13.10375652,"ECCENTRICITY":8.241e-5,"INCLINATION":87.8833,"RA_OF_ASC_NODE":73.0877,"ARG_OF_PERICENTER":79.4187,"MEAN_ANOMALY":280.7034,"EPHEMERIS_TYPE":0,"CLASSIFICATION_TYPE":"U","NORAD_CAT_ID":61609,"ELEMENT_SET_NO":999,"REV_AT_EPOCH":5907,"BSTAR":-0.00081917909,"MEAN_MOTION_DOT":-2.73e-6,"MEAN_MOTION_DDOT":0}]
